[
  {
    "displayName": "United States",
    "nativeName": "United States",
    "flagEmoji": "ðŸ‡ºðŸ‡¸",
    "gl": "US",
    "hl": [
      "en"
    ],
    "region": "North America",
    "isRecommended": true
  },
  {
    "displayName": "United Kingdom",
    "nativeName": "United Kingdom",
    "flagEmoji": "ðŸ‡¬ðŸ‡§",
    "gl": "GB",
    "hl": [
      "en-GB"
    ],
    "region": "Europe",
    "isRecommended": true
  },
  {
    "displayName": "India",
    "nativeName": "à¤­à¤¾à¤°à¤¤",
    "flagEmoji": "ðŸ‡®ðŸ‡³",
    "gl": "IN",
    "hl": [
      "en-IN",
      "hi"
    ],
    "region": "Asia",
    "isRecommended": true
  },
  {
    "displayName": "Japan",
    "nativeName": "æ—¥æœ¬",
    "flagEmoji": "ðŸ‡¯ðŸ‡µ",
    "gl": "JP",
    "hl": [
      "ja"
    ],
    "region": "Asia",
    "isRecommended": true
  },
  {
    "displayName": "Australia",
    "nativeName": "Australia",
    "flagEmoji": "ðŸ‡¦ðŸ‡º",
    "gl": "AU",
    "hl": [
      "en-AU"
    ],
    "region": "Oceania",
    "isRecommended": true
  },
  {
    "displayName": "Canada",
    "nativeName": "Canada",
    "flagEmoji": "ðŸ‡¨ðŸ‡¦",
    "gl": "CA",
    "hl": [
      "en-CA",
      "fr-CA"
    ],
    "region": "North America",
    "isRecommended": true
  },
  {
    "displayName": "Germany",
    "nativeName": "Deutschland",
    "flagEmoji": "ðŸ‡©ðŸ‡ª",
    "gl": "DE",
    "hl": [
      "de"
    ],
    "region": "Europe",
    "isRecommended": true
  },
  {
    "displayName": "France",
    "nativeName": "France",
    "flagEmoji": "ðŸ‡«ðŸ‡·",
    "gl": "FR",
    "hl": [
      "fr"
    ],
    "region": "Europe",
    "isRecommended": true
  },
  {
    "displayName": "Brazil",
    "nativeName": "Brasil",
    "flagEmoji": "ðŸ‡§ðŸ‡·",
    "gl": "BR",
    "hl": [
      "pt-BR"
    ],
    "region": "South America",
    "isRecommended": true
  },
  {
    "displayName": "South Korea",
    "nativeName": "ëŒ€í•œë¯¼êµ­",
    "flagEmoji": "ðŸ‡°ðŸ‡·",
    "gl": "KR",
    "hl": [
      "ko"
    ],
    "region": "Asia",
    "isRecommended": true
  },
  {
    "displayName": "Singapore",
    "nativeName": "Singapore",
    "flagEmoji": "ðŸ‡¸ðŸ‡¬",
    "gl": "SG",
    "hl": [
      "en-SG",
      "zh-CN"
    ],
    "region": "Asia",
    "isRecommended": true
  },
  {
    "displayName": "Qatar",
    "nativeName": "Ù‚Ø·Ø±",
    "flagEmoji": "ðŸ‡¶ðŸ‡¦",
    "gl": "QA",
    "hl": [
      "ar",
      "en"
    ],
    "region": "Middle East",
    "isRecommended": true
  },
  {
    "displayName": "United Arab Emirates",
    "nativeName": "Ø§Ù„Ø¥Ù…Ø§Ø±Ø§Øª Ø§Ù„Ø¹Ø±Ø¨ÙŠØ© Ø§Ù„Ù…ØªØ­Ø¯Ø©",
    "flagEmoji": "ðŸ‡¦ðŸ‡ª",
    "gl": "AE",
    "hl": [
      "ar",
      "en"
    ],
    "region": "Middle East",
    "isRecommended": false
  },
  {
    "displayName": "Italy",
    "nativeName": "Italia",
    "flagEmoji": "ðŸ‡®ðŸ‡¹",
    "gl": "IT",
    "hl": [
      "it"
    ],
    "region": "Europe",
    "isRecommended": false
  },
  {
    "displayName": "Spain",
    "nativeName": "EspaÃ±a",
    "flagEmoji": "ðŸ‡ªðŸ‡¸",
    "gl": "ES",
    "hl": [
      "es"
    ],
    "region": "Europe",
    "isRecommended": false
  },
  {
    "displayName": "South Africa",
    "nativeName": "South Africa",
    "flagEmoji": "ðŸ‡¿ðŸ‡¦",
    "gl": "ZA",
    "hl": [
      "en-ZA",
      "af",
      "zu"
    ],
    "region": "Africa",
    "isRecommended": true
  },
  {
    "displayName": "Nigeria",
    "nativeName": "Nigeria",
    "flagEmoji": "ðŸ‡³ðŸ‡¬",
    "gl": "NG",
    "hl": [
      "en-NG",
      "yo",
      "ha"
    ],
    "region": "Africa",
    "isRecommended": true
  },
  {
    "displayName": "Kenya",
    "nativeName": "Kenya",
    "flagEmoji": "ðŸ‡°ðŸ‡ª",
    "gl": "KE",
    "hl": [
      "en-KE",
      "sw"
    ],
    "region": "Africa",
    "isRecommended": true
  },
  {
    "displayName": "Egypt",
    "nativeName": "Ù…ØµØ±",
    "flagEmoji": "ðŸ‡ªðŸ‡¬",
    "gl": "EG",
    "hl": [
      "ar",
      "en"
    ],
    "region": "Middle East & North Africa",
    "isRecommended": true
  },
  {
    "displayName": "Mexico",
    "nativeName": "MÃ©xico",
    "flagEmoji": "ðŸ‡²ðŸ‡½",
    "gl": "MX",
    "hl": [
      "es-MX"
    ],
    "region": "Latin America",
    "isRecommended": true
  },
  {
    "displayName": "Argentina",
    "nativeName": "Argentina",
    "flagEmoji": "ðŸ‡¦ðŸ‡·",
    "gl": "AR",
    "hl": [
      "es-AR"
    ],
    "region": "Latin America",
    "isRecommended": false
  },
  {
    "displayName": "Sweden",
    "nativeName": "Sverige",
    "flagEmoji": "ðŸ‡¸ðŸ‡ª",
    "gl": "SE",
    "hl": [
      "sv",
      "en"
    ],
    "region": "Europe",
    "isRecommended": false
  },
  {
    "displayName": "Netherlands",
    "nativeName": "Nederland",
    "flagEmoji": "ðŸ‡³ðŸ‡±",
    "gl": "NL",
    "hl": [
      "nl",
      "en"
    ],
    "region": "Europe",
    "isRecommended": false
  },
  {
    "displayName": "Philippines",
    "nativeName": "Pilipinas",
    "flagEmoji": "ðŸ‡µðŸ‡­",
    "gl": "PH",
    "hl": [
      "en-PH",
      "tl"
    ],
    "region": "Asia",
    "isRecommended": true
  },
  {
    "displayName": "Indonesia",
    "nativeName": "Indonesia",
    "flagEmoji": "ðŸ‡®ðŸ‡©",
    "gl": "ID",
    "hl": [
      "id",
      "en"
    ],
    "region": "Asia",
    "isRecommended": true
  }
]
